StoreName,StoreType,StoreOpeningDate,Address,City,State,Country,Region,Manager Name
The Trendy Avenue,Outlet Stores,2008-09-23,5229 Snyder Lake Suite 400 Moralesborough  PW 73690,Port Kellyfurt,Michigan,Romania,East,Richard
The Serene Enclave,SMB,2011-09-24,86265 Pamela Mountain New Haileyport  NC 44766,Randolphhaven,Alabama,Russian Federation,East,Kimberly
The Harmony Vault,Exclusive,1992-07-05,638 Phillips River South Matthewport  PW 82451,Smithfurt,Indiana,Bosnia and Herzegovina,North,Andrew
The Harmony Quest,MBO,1995-01-04,78234 Lucas Road East Dan  AL 88891,Lisaton,Virginia,Saudi Arabia,West,Nicole
The Radiant Creations,Exclusive,1976-09-28,569 Robert Branch Suite 653 Arthurport  SC 38251,New Kelly,Kansas,Armenia,North,Diana
The Purely Reflections,Exclusive,2017-08-12,Unit 6685 Box 8058 DPO AA 77310,Moseshaven,Nevada,Estonia,West,Melissa
The Urban Marvels,Outlet Stores,2002-01-20,8893 Shannon Cliff Port Nancy  RI 51875,Port Travis,Michigan,Antigua and Barbuda,East,Pamela
The Timeless Hub,SMB,1999-07-17,137 Jackson Extension Suite 743 Cynthiachester  NY 77489,Sanchezville,Oregon,Afghanistan,North,John
The Elegant Marketplace,Exclusive,2003-11-28,85108 Cynthia Hollow Apt. 846 New Hannahmouth  NC 44134,East Amberbury,Washington,Bhutan,North,Karen
The Purely Merchant,Exclusive,2000-04-07,96960 Betty Spurs Apt. 425 West Andrewside  UT 78460,Joannastad,West Virginia,Turkey,North,Jacqueline
The Cozy Treasures,MBO,2004-02-27,5601 Randall Wall Apt. 678 South Kimberlystad  UT 21804,Lake Grantville,Wyoming,Cote d'Ivoire,East,Charles
The Stylish Deals,MBO,1988-12-31,8922 Rachel Valley Apt. 051 Lake Davidborough  FM 72475,Williamland,Oklahoma,Sao Tome and Principe,East,Jessica
The Whimsy Marvels,SMB,1998-09-13,180 Dyer Knolls Suite 387 East Sandrastad  MH 69251,Dawnview,Kentucky,Morocco,North,Jacqueline
The Modern Emporium,Exclusive,2004-01-29,0804 Rogers Walk East Nathan  MN 69256,Davishaven,Mississippi,Hong Kong,West,Marcus
The Chic Quest,Outlet Stores,1981-02-27,0371 Kimberly Highway Apt. 589 North Michaelville  RI 15239,Nathanmouth,New Hampshire,Montserrat,South,Jacqueline
The Cozy Closet,SMB,2020-09-22,52733 Hansen Cape Reginabury  IA 68488,Port Kirstenberg,Missouri,Yemen,South,Ryan
The Artisan Avenue,SMB,2002-09-16,5707 Arnold Springs Apt. 345 Haastown  WV 70469,North William,Missouri,Kazakhstan,East,Heather
The Stylish Merchant,Exclusive,1978-08-29,PSC 8618  Box 0708 APO AE 07679,Rodneyhaven,Iowa,Cuba,North,Jenny
The Luxe Enclave,MBO,2003-10-15,423 Dawn Rue Cliffordview  MH 28823,Port Kimberlyhaven,Arizona,Papua New Guinea,East,Carla
The Vintage Finds,SMB,2015-07-15,301 Espinoza Viaduct Samuelborough  MN 42752,Michaelshire,Ohio,Dominican Republic,North,Teresa
The Majestic Marvels,SMB,1987-04-09,Unit 0743 Box 8988 DPO AP 67975,Jesusport,Iowa,Sudan,South,Wyatt
The Majestic Finds,Exclusive,1993-10-11,597 Haley Spurs Johnsonchester  LA 64464,Joshuaton,Louisiana,American Samoa,East,Steven
The Dapper Quest,Outlet Stores,1976-03-25,39708 Charles Rapids Apt. 116 Lake Jameston  FM 03616,South Davidland,Nevada,Zambia,North,Christine
The Purely Sanctuary,MBO,2012-07-05,7164 Lowe Forge Suite 068 Sextonhaven  CO 82828,West Christopherland,Montana,Korea,East,Sandra
The Luxe Marvels,Exclusive,1996-01-22,7055 John Parkway Apt. 719 North Michaelhaven  TX 43939,Michelleville,Colorado,Tajikistan,West,Neil
The Harmony Treasures,SMB,2004-10-22,264 Paul Track Suite 270 Port Stanleyland  MI 30302,South Johnport,Vermont,Lithuania,South,Brandon
The Shimmer Finds,Outlet Stores,1995-04-24,07624 Amanda Fall Apt. 866 West Brianmouth  IN 22651,Arianaville,Oklahoma,Reunion,South,David
The Shimmer Shop,SMB,2011-09-20,USNS Thomas FPO AA 29193,Butlerville,Wisconsin,Trinidad and Tobago,East,Renee
The Timeless Shoppe,Outlet Stores,2020-12-08,193 Joseph Point Suite 032 Thomastown  SC 15874,West Virginia,Maine,Canada,South,Kim
The Shimmer Treasures,Exclusive,1978-05-20,858 Stephens Pines Benjaminside  SD 32427,Annaview,Oregon,Uzbekistan,South,Meredith
The Purely Marketplace,SMB,1970-01-18,1126 Gonzalez Plaza Suite 882 South Kurt  NC 11761,Cooperside,Arkansas,United States Minor Outlying Islands,East,Kimberly
The Serene Deals,Outlet Stores,2008-01-05,747 Randall Ways Suite 081 Jonesbury  MP 72909,Port Johnny,Missouri,Ireland,East,John
The Classy Quest,MBO,1995-01-21,35926 Smith Bridge Apt. 037 Debraside  CT 42551,North Scottmouth,Rhode Island,India,South,Dustin
The Timeless Enclave,Outlet Stores,1990-11-01,0283 Juan Station Apt. 966 East Michaelstad  VI 76218,Beltranville,Virginia,Guinea-Bissau,West,Andrew
The Happy Perfection,SMB,1975-02-07,14533 Brennan Valley Apt. 613 Warrenburgh  LA 47111,Jacksonshire,New Mexico,Turks and Caicos Islands,East,Jonathan
The Dapper Vault,SMB,1992-12-12,30589 Crystal Valley East Cynthia  PW 00541,New Dawnland,New York,Saint Lucia,North,Douglas
The Rustic Finds,MBO,2016-12-07,10911 Williams Vista Apt. 220 West Blakeberg  UT 18637,Tamaratown,South Dakota,United States Minor Outlying Islands,North,Jorge
The Vintage Shoppe,SMB,2009-03-15,Unit 6239 Box 4211 DPO AP 98263,Quinnville,Rhode Island,Saint Pierre and Miquelon,East,Richard
The Stylish Haven,Exclusive,2021-11-08,Unit 3450 Box 9894 DPO AA 81396,South Brianstad,New Mexico,Austria,West,Diana
The Trendy Shoppe,Outlet Stores,2019-07-03,6098 Hanna Bridge Turnerland  GU 15553,Frankchester,Montana,Bahrain,East,Steven
The Modern Cabinet,MBO,1978-02-18,Unit 8177 Box 8196 DPO AE 07111,Carrietown,New Mexico,Uzbekistan,East,Catherine
The Dapper Perfection,SMB,1974-11-28,2231 Bradley Stream New Amy  PW 87057,Monicaton,New Hampshire,Guernsey,North,John
The Radiant Reflections,SMB,1992-01-01,65830 Edwards Camp Apt. 556 Pearsonstad  GA 58093,East Aprilstad,South Dakota,Guam,North,Erica
The Blissful Avenue,MBO,2005-08-26,PSC 6344  Box 6530 APO AA 72528,Brownfurt,Vermont,Switzerland,West,Danny
The Stylish Closet,SMB,1971-11-23,6198 Smith Fords East Shannonview  NM 76362,New Courtney,Delaware,North Macedonia,North,Jennifer
The Harmony Hub,SMB,2004-08-24,076 Bonnie Mills North Lisaville  PR 63425,Williamville,Louisiana,Belize,North,Jason
The Urban Sanctuary,SMB,1993-04-05,0366 Tamara Club Moorehaven  WI 62437,Watsonshire,Pennsylvania,Papua New Guinea,South,Peter
The Whimsy Loft,SMB,2005-02-26,0418 White Square Amandahaven  GU 88178,Gambleshire,West Virginia,Hong Kong,North,Sean
The Elegant Avenue,MBO,2011-07-14,23105 Brent Burg East Jenniferchester  WV 70740,Michaelberg,Wyoming,Liechtenstein,East,Kimberly
The Majestic Loft,Outlet Stores,1992-08-14,PSC 2982  Box 9830 APO AA 42286,Stephenshaven,Virginia,France,East,Brett
The Artisan Closet,SMB,1971-01-13,385 Nathan Ford Lake Samanthamouth  ME 46575,North Jacobberg,New Hampshire,Lithuania,North,Tina
The Golden Quest,Outlet Stores,1990-11-18,17937 Carol Villages Goodhaven  OK 40479,North Rogerbury,Mississippi,Japan,South,Jennifer
The Radiant Sanctuary,Exclusive,2022-11-18,94288 David Points Brookeland  NM 84063,North Xavier,Washington,United States of America,West,Chase
The Chic Shop,SMB,2007-05-26,45950 Warner Courts East Richard  WV 94263,Julieborough,Illinois,Saint Lucia,North,Angela
The Vintage Haven,MBO,2014-05-31,8613 Christopher Drive New Amanda  IN 42473,West Mike,Arkansas,Cook Islands,West,Kristi
The Urban Elegance,SMB,2004-02-25,PSC 8546  Box 5360 APO AE 46598,Dianeberg,California,Liberia,South,Michael
The Serene Hub,SMB,2007-12-25,133 Velez Lights New Harry  ID 71898,West Kevinside,Minnesota,Madagascar,East,Daniel
The Artisan Marvels,SMB,1984-07-09,Unit 3031 Box 7740 DPO AP 94434,North Angelafort,California,France,South,Michael
The Vintage Marketplace,SMB,2008-08-15,8616 Jason Knoll Apt. 618 Lindastad  FL 51881,Michaeltown,West Virginia,Japan,South,Rebecca
The Chic Loft,Outlet Stores,1983-09-03,33705 Melanie Orchard Apt. 495 Gambleview  IL 83700,Jackmouth,New Jersey,Cyprus,North,Elizabeth
The Whimsy Merchant,SMB,1976-07-25,18288 Li Ridge Mcdonaldchester  AK 09971,Johnfurt,Maryland,Anguilla,East,Michael
The Modern Deals,Outlet Stores,1989-11-11,8381 Lisa Grove Harperville  MO 44466,East Michaelmouth,Maryland,Saint Barthelemy,West,Wendy
The Urban Merchant,Outlet Stores,2020-04-22,34758 Kelsey Mews Holmesburgh  IA 05925,New Michael,North Carolina,Syrian Arab Republic,West,Linda
The Stylish Reflections,Exclusive,2020-01-31,86375 Lucas Island Apt. 632 Lake Leslieburgh  NH 83358,Hernandezstad,Minnesota,Syrian Arab Republic,South,Danielle
The Chic Quest,Outlet Stores,1980-01-23,PSC 4546  Box 7952 APO AA 34785,New Coryberg,Illinois,Palau,South,Randall
The Urban Essentials,SMB,1989-09-28,3346 Hamilton Stream Apt. 326 South Bradley  PA 48937,Davidstad,Kansas,Sao Tome and Principe,East,Christie
The Golden Vault,Exclusive,2010-06-03,317 James Green Suite 513 South Jamie  WY 33713,Nathanielchester,Alaska,Korea,West,Angela
The Blissful Oasis,Outlet Stores,1978-08-06,1992 Kelly Ramp Brownland  PA 91909,Port Desireefort,North Carolina,Rwanda,North,Jacob
The Artisan Elegance,MBO,2018-06-22,87292 Jessica Ferry Apt. 545 Mcdowellchester  WV 44479,Melendezhaven,Missouri,Faroe Islands,East,Michael
The Unique Boutique,MBO,2008-11-27,314 Potter Drive West Christian  WA 73081,Andersonstad,Idaho,Vietnam,South,Kimberly
The Stylish Shoppe,Exclusive,1996-05-04,8221 Higgins Heights Jacobtown  PA 09281,North Davidborough,Wyoming,Poland,West,Marcus
The Polished Haven,SMB,2011-09-13,73729 Davidson Trail Port Kylemouth  CT 01636,Batesborough,Iowa,Saint Lucia,West,Amber
The Modern Merchant,Exclusive,2019-05-18,414 Mckay Valleys Suite 390 Carolton  MA 31041,Gibsonchester,Kansas,Malaysia,West,Dawn
The Vintage Deals,Exclusive,1972-03-09,712 Kathleen Crossing Apt. 084 East Garybury  TX 09100,West Cathy,Kentucky,Guadeloupe,West,Jack
The Stylish Shop,Exclusive,2018-05-24,48600 Hudson Wells Scottborough  ME 45062,West Jonathanville,Kentucky,Martinique,West,Carlos
The Shimmer Perfection,SMB,1979-03-11,PSC 7888  Box 6922 APO AP 94531,West Molly,North Dakota,Liberia,West,Thomas
The Trendy Shop,MBO,2005-11-25,72389 Brown Divide Brandistad  LA 29084,Michaeltown,Texas,Gabon,North,Jacob
The Harmony Emporium,Outlet Stores,1989-02-22,647 Stacy Well Suite 049 Carlsonchester  TN 55982,New Trevor,Utah,Burkina Faso,North,Dakota
The Majestic Nook,SMB,1975-07-15,6235 Miller Heights Apt. 030 Beasleybury  MS 18722,East Carmentown,North Carolina,Wallis and Futuna,West,Erin
The Elegant Corner,MBO,2016-02-08,62805 Michelle Corners Lake Deborah  NM 17316,Myersshire,Florida,Bahrain,East,Kyle
The Whimsy Oasis,Outlet Stores,2003-09-21,51058 Betty Vista Apt. 720 Lisaton  ND 05940,West Alicia,Wyoming,Maldives,East,Michelle
The Blissful Avenue,Exclusive,2023-12-21,8189 Stephanie Wells North Allenchester  WA 55663,Port Rodney,South Carolina,Egypt,West,Maria
The Cozy Elegance,Exclusive,1985-08-02,951 Morgan Expressway Apt. 649 New Andrewhaven  FM 96145,Aaronburgh,Kansas,Northern Mariana Islands,North,Zoe
The Urban Closet,Exclusive,1988-09-06,555 Abigail Ridges West Kendrafurt  ME 90657,Gregoryhaven,New Mexico,Saint Martin,North,Spencer
The Rustic Treasures,MBO,1977-12-21,3662 Richard Burg Apt. 098 Mendozaborough  FL 49893,East Rachaelchester,New Mexico,Mauritania,South,Ruben
The Harmony Boutique,MBO,2014-02-18,9686 Gallegos Mountain Melissashire  MI 02869,South Kristinport,Rhode Island,Northern Mariana Islands,North,Carolyn
The Happy Marvels,Exclusive,2007-06-04,746 Kramer Plain Ralphshire  ND 49994,Port Jenniferbury,Minnesota,Cameroon,North,Julia
The Modern Boutique,SMB,2014-03-27,5764 Mccormick Key North Ronaldbury  ND 69082,North Baileychester,Tennessee,Mexico,East,Brian
The Modern Avenue,SMB,1999-06-13,86449 Cindy Park Hallshire  TN 12081,New Lindseyburgh,Nebraska,Korea,North,Andrew
The Cozy Emporium,SMB,2007-11-30,662 Matthew Ramp Flynnville  UT 69600,Phillipshaven,Louisiana,Malta,North,James
The Polished Merchant,Exclusive,1971-10-20,334 Fletcher Locks Apt. 432 Meyersfurt  AZ 23287,Garciaside,Iowa,Brunei Darussalam,South,Tracy
The Purely Oasis,MBO,2018-12-07,504 Cisneros Gateway Apt. 235 Mikemouth  FL 18258,Butlerberg,Louisiana,Monaco,East,Gary
The Classy Finds,Exclusive,1991-08-05,79173 Justin Junctions Apt. 473 New Frankfort  OK 23762,East Emilyton,Alaska,Nauru,West,Debra
The Harmony Perfection,Outlet Stores,2002-07-18,7057 Michelle Lights Suite 818 Angelaville  MS 74275,Dillonburgh,Maryland,Myanmar,North,Darryl
The Rustic Haven,Outlet Stores,2015-10-13,1123 Mccall Plaza Port Karenmouth  NH 65988,North Justin,New Jersey,Dominican Republic,South,Mark
The Purely Quest,Exclusive,2011-05-26,7503 Contreras Wells Suite 926 Bryanmouth  AR 24884,Changburgh,Idaho,Canada,East,John
The Timeless Oasis,Exclusive,2006-02-08,98107 Flynn Mills Apt. 206 South Sabrinabury  NH 65459,Cynthiamouth,Minnesota,Guinea-Bissau,North,Christine
The Artisan Merchant,Exclusive,1974-02-28,2229 Michael Place Suite 614 West Sandrachester  TN 37606,Lake Richard,Colorado,Bulgaria,West,Jessica
The Unique Elegance,Exclusive,2019-05-13,679 Sabrina Mountain Suite 954 Kelleyland  SD 32139,Diazview,Ohio,Mayotte,East,Donna
The Modern Haven,SMB,1975-02-11,62936 Logan Radial Apt. 903 Charlesview  NC 42728,Freemanmouth,Utah,Aruba,South,Mark
